[{"OBJECT_NAME":"STARLINK-30602","OBJECT_ID":"2023-160G","EPOCH":"2026-03-04T12:00:00.998784","MEAN_MOTION":15.21178748,"ECCENTRICITY":0.0001727,"INCLINATION":43.0004,"RA_OF_ASC_NODE":107.2753,"ARG_OF_PERICENTER":310.6381,"MEAN_ANOMALY":314.5447,"EPHEMERIS_TYPE":0,"CLASSIFICATION_TYPE":"U","NORAD_CAT_ID":58081,"ELEMENT_SET_NO":999,"REV_AT_EPOCH":576,"BSTAR":0.069849,"MEAN_MOTION_DOT":0.0173747,"MEAN_MOTION_DDOT":0},{"OBJECT_NAME":"STARLINK-30610","OBJECT_ID":"2023-160H","EPOCH":"2026-03-04T12:00:00.998784","MEAN_MOTION":15.26723812,"ECCENTRICITY":0.0001037,"INCLINATION":43.0006,"RA_OF_ASC_NODE":107.194,"ARG_OF_PERICENTER":267.1109,"MEAN_ANOMALY":38.6481,"EPHEMERIS_TYPE":0,"CLASSIFICATION_TYPE":"U","NORAD_CAT_ID":58082,"ELEMENT_SET_NO":999,"REV_AT_EPOCH":577,"BSTAR":0.0031912,"MEAN_MOTION_DOT":0.00086306,"MEAN_MOTION_DDOT":0},{"OBJECT_NAME":"STARLINK-30551","OBJECT_ID":"2023-160J","EPOCH":"2026-03-04T11:30:39.639744","MEAN_MOTION":15.02534135,"ECCENTRICITY":0.0001037,"INCLINATION":42.9981,"RA_OF_ASC_NODE":108.6012,"ARG_OF_PERICENTER":259.5981,"MEAN_ANOMALY":100.4745,"EPHEMERIS_TYPE":0,"CLASSIFICATION_TYPE":"U","NORAD_CAT_ID":58083,"ELEMENT_SET_NO":999,"REV_AT_EPOCH":13213,"BSTAR":0.0001861,"MEAN_MOTION_DOT":2.311e-5,"MEAN_MOTION_DDOT":0},{"OBJECT_NAME":"STARLINK-30586","OBJECT_ID":"2023-160K","EPOCH":"2026-03-04T05:02:55.414176","MEAN_MOTION":15.02594439,"ECCENTRICITY":0.0001766,"INCLINATION":43.0021,"RA_OF_ASC_NODE":110.0298,"ARG_OF_PERICENTER":287.9782,"MEAN_ANOMALY":72.0867,"EPHEMERIS_TYPE":0,"CLASSIFICATION_TYPE":"U","NORAD_CAT_ID":58084,"ELEMENT_SET_NO":999,"REV_AT_EPOCH":13209,"BSTAR":-0.0010119,"MEAN_MOTION_DOT":-0.00013868,"MEAN_MOTION_DDOT":0},{"OBJECT_NAME":"STARLINK-30609","OBJECT_ID":"2023-160L","EPOCH":"2026-03-04T04:58:09.106176","MEAN_MOTION":15.02534392,"ECCENTRICITY":0.0001264,"INCLINATION":43.0015,"RA_OF_ASC_NODE":110.0027,"ARG_OF_PERICENTER":255.1507,"MEAN_ANOMALY":104.9195,"EPHEMERIS_TYPE":0,"CLASSIFICATION_TYPE":"U","NORAD_CAT_ID":58085,"ELEMENT_SET_NO":999,"REV_AT_EPOCH":13209,"BSTAR":5.4515e-5,"MEAN_MOTION_DOT":5.33e-6,"MEAN_MOTION_DDOT":0},{"OBJECT_NAME":"STARLINK-30583","OBJECT_ID":"2023-160M","EPOCH":"2026-03-04T03:17:37.390848","MEAN_MOTION":15.02522921,"ECCENTRICITY":0.0001877,"INCLINATION":43.0014,"RA_OF_ASC_NODE":110.3404,"ARG_OF_PERICENTER":268.1795,"MEAN_ANOMALY":91.8832,"EPHEMERIS_TYPE":0,"CLASSIFICATION_TYPE":"U","NORAD_CAT_ID":58086,"ELEMENT_SET_NO":999,"REV_AT_EPOCH":13208,"BSTAR":-0.00017813,"MEAN_MOTION_DOT":-2.608e-5,"MEAN_MOTION_DDOT":0},{"OBJECT_NAME":"STARLINK-30557","OBJECT_ID":"2023-160N","EPOCH":"2026-03-04T03:16:01.960320","MEAN_MOTION":15.02536921,"ECCENTRICITY":0.0001302,"INCLINATION":43.0038,"RA_OF_ASC_NODE":110.3352,"ARG_OF_PERICENTER":276.0434,"MEAN_ANOMALY":84.026,"EPHEMERIS_TYPE":0,"CLASSIFICATION_TYPE":"U","NORAD_CAT_ID":58087,"ELEMENT_SET_NO":999,"REV_AT_EPOCH":13208,"BSTAR":6.7028e-5,"MEAN_MOTION_DOT":7.02e-6,"MEAN_MOTION_DDOT":0},{"OBJECT_NAME":"STARLINK-30591","OBJECT_ID":"2023-160P","EPOCH":"2026-03-04T12:00:00.998784","MEAN_MOTION":15.2672209,"ECCENTRICITY":7.43e-5,"INCLINATION":42.9994,"RA_OF_ASC_NODE":106.8754,"ARG_OF_PERICENTER":259.2708,"MEAN_ANOMALY":179.8364,"EPHEMERIS_TYPE":0,"CLASSIFICATION_TYPE":"U","NORAD_CAT_ID":58088,"ELEMENT_SET_NO":999,"REV_AT_EPOCH":561,"BSTAR":0.0030922,"MEAN_MOTION_DOT":0.00083583,"MEAN_MOTION_DDOT":0},{"OBJECT_NAME":"STARLINK-30584","OBJECT_ID":"2023-160Q","EPOCH":"2026-03-04T12:00:00.998784","MEAN_MOTION":15.26669515,"ECCENTRICITY":7.73e-5,"INCLINATION":42.9998,"RA_OF_ASC_NODE":107.0645,"ARG_OF_PERICENTER":293.5263,"MEAN_ANOMALY":63.8258,"EPHEMERIS_TYPE":0,"CLASSIFICATION_TYPE":"U","NORAD_CAT_ID":58089,"ELEMENT_SET_NO":999,"REV_AT_EPOCH":566,"BSTAR":0.004492,"MEAN_MOTION_DOT":0.00121983,"MEAN_MOTION_DDOT":0},{"OBJECT_NAME":"STARLINK-30590","OBJECT_ID":"2023-160R","EPOCH":"2026-03-04T11:11:28.408128","MEAN_MOTION":15.02540256,"ECCENTRICITY":0.0001191,"INCLINATION":43.0024,"RA_OF_ASC_NODE":108.5096,"ARG_OF_PERICENTER":272.8896,"MEAN_ANOMALY":87.181,"EPHEMERIS_TYPE":0,"CLASSIFICATION_TYPE":"U","NORAD_CAT_ID":58090,"ELEMENT_SET_NO":999,"REV_AT_EPOCH":13213,"BSTAR":4.0842e-5,"MEAN_MOTION_DOT":3.48e-6,"MEAN_MOTION_DDOT":0},{"OBJECT_NAME":"STARLINK-30608","OBJECT_ID":"2023-160S","EPOCH":"2026-03-04T12:00:00.998784","MEAN_MOTION":15.26730858,"ECCENTRICITY":0.0001027,"INCLINATION":42.9993,"RA_OF_ASC_NODE":106.9369,"ARG_OF_PERICENTER":269.7144,"MEAN_ANOMALY":142.7138,"EPHEMERIS_TYPE":0,"CLASSIFICATION_TYPE":"U","NORAD_CAT_ID":58091,"ELEMENT_SET_NO":999,"REV_AT_EPOCH":556,"BSTAR":0.0025924,"MEAN_MOTION_DOT":0.00069921,"MEAN_MOTION_DDOT":0},{"OBJECT_NAME":"STARLINK-30615","OBJECT_ID":"2023-160T","EPOCH":"2026-03-04T12:00:00.998784","MEAN_MOTION":15.228109,"ECCENTRICITY":0.0001447,"INCLINATION":43.0006,"RA_OF_ASC_NODE":107.3351,"ARG_OF_PERICENTER":285.4624,"MEAN_ANOMALY":317.9449,"EPHEMERIS_TYPE":0,"CLASSIFICATION_TYPE":"U","NORAD_CAT_ID":58092,"ELEMENT_SET_NO":999,"REV_AT_EPOCH":576,"BSTAR":0.07473,"MEAN_MOTION_DOT":0.01974537,"MEAN_MOTION_DDOT":0},{"OBJECT_NAME":"STARLINK-30578","OBJECT_ID":"2023-160U","EPOCH":"2026-03-04T12:00:00.998784","MEAN_MOTION":15.27542267,"ECCENTRICITY":7.84e-5,"INCLINATION":42.9997,"RA_OF_ASC_NODE":107.0492,"ARG_OF_PERICENTER":292.0841,"MEAN_ANOMALY":69.7723,"EPHEMERIS_TYPE":0,"CLASSIFICATION_TYPE":"U","NORAD_CAT_ID":58093,"ELEMENT_SET_NO":999,"REV_AT_EPOCH":567,"BSTAR":0.0021458,"MEAN_MOTION_DOT":0.00059192,"MEAN_MOTION_DDOT":0},{"OBJECT_NAME":"STARLINK-30574","OBJECT_ID":"2023-160V","EPOCH":"2026-03-04T12:00:00.998784","MEAN_MOTION":15.26595837,"ECCENTRICITY":9.94e-5,"INCLINATION":42.9996,"RA_OF_ASC_NODE":106.9689,"ARG_OF_PERICENTER":265.9902,"MEAN_ANOMALY":130.8796,"EPHEMERIS_TYPE":0,"CLASSIFICATION_TYPE":"U","NORAD_CAT_ID":58094,"ELEMENT_SET_NO":999,"REV_AT_EPOCH":566,"BSTAR":0.0053079,"MEAN_MOTION_DOT":0.00144303,"MEAN_MOTION_DDOT":0},{"OBJECT_NAME":"STARLINK-30570","OBJECT_ID":"2023-160W","EPOCH":"2026-03-04T12:00:00.998784","MEAN_MOTION":15.22943053,"ECCENTRICITY":0.0001173,"INCLINATION":42.9994,"RA_OF_ASC_NODE":106.9807,"ARG_OF_PERICENTER":299.8963,"MEAN_ANOMALY":92.0868,"EPHEMERIS_TYPE":0,"CLASSIFICATION_TYPE":"U","NORAD_CAT_ID":58095,"ELEMENT_SET_NO":999,"REV_AT_EPOCH":576,"BSTAR":0.060885,"MEAN_MOTION_DOT":0.01608013,"MEAN_MOTION_DDOT":0},{"OBJECT_NAME":"STARLINK-30581","OBJECT_ID":"2023-160X","EPOCH":"2026-03-04T12:00:00.998784","MEAN_MOTION":15.27554685,"ECCENTRICITY":8.99e-5,"INCLINATION":43.0045,"RA_OF_ASC_NODE":107.2812,"ARG_OF_PERICENTER":281.4145,"MEAN_ANOMALY":341.4716,"EPHEMERIS_TYPE":0,"CLASSIFICATION_TYPE":"U","NORAD_CAT_ID":58096,"ELEMENT_SET_NO":999,"REV_AT_EPOCH":571,"BSTAR":-8.2432e-5,"MEAN_MOTION_DOT":-2.528e-5,"MEAN_MOTION_DDOT":0},{"OBJECT_NAME":"STARLINK-30594","OBJECT_ID":"2023-161A","EPOCH":"2026-03-04T08:15:29.792448","MEAN_MOTION":15.30197279,"ECCENTRICITY":0.0001153,"INCLINATION":53.1606,"RA_OF_ASC_NODE":190.332,"ARG_OF_PERICENTER":86.2739,"MEAN_ANOMALY":273.8393,"EPHEMERIS_TYPE":0,"CLASSIFICATION_TYPE":"U","NORAD_CAT_ID":58097,"ELEMENT_SET_NO":999,"REV_AT_EPOCH":13360,"BSTAR":8.1761e-5,"MEAN_MOTION_DOT":2.063e-5,"MEAN_MOTION_DDOT":0}]
