STARLINK-30602          
1 58081U 23160G   26063.50001156  .01737470  00000+0  69849-1 0  9994
2 58081  43.0004 107.2753 0001727 310.6381 314.5447 15.21178748  5769
STARLINK-30610          
1 58082U 23160H   26063.50001156  .00086306  00000+0  31912-2 0  9990
2 58082  43.0006 107.1940 0001037 267.1109  38.6481 15.26723812  5773
STARLINK-30551          
1 58083U 23160J   26063.47962546  .00002311  00000+0  18610-3 0  9991
2 58083  42.9981 108.6012 0001037 259.5981 100.4745 15.02534135132137
STARLINK-30586          
1 58084U 23160K   26063.21036359 -.00013868  00000+0 -10119-2 0  9994
2 58084  43.0021 110.0298 0001766 287.9782  72.0867 15.02594439132098
STARLINK-30609          
1 58085U 23160L   26063.20704984  .00000533  00000+0  54515-4 0  9993
2 58085  43.0015 110.0027 0001264 255.1507 104.9195 15.02534392132098
STARLINK-30583          
1 58086U 23160M   26063.13723832 -.00002608  00000+0 -17813-3 0  9995
2 58086  43.0014 110.3404 0001877 268.1795  91.8832 15.02522921132089
STARLINK-30557          
1 58087U 23160N   26063.13613380  .00000702  00000+0  67028-4 0  9997
2 58087  43.0038 110.3352 0001302 276.0434  84.0260 15.02536921132083
STARLINK-30591          
1 58088U 23160P   26063.50001156  .00083583  00000+0  30922-2 0  9990
2 58088  42.9994 106.8754 0000743 259.2708 179.8364 15.26722090  5610
STARLINK-30584          
1 58089U 23160Q   26063.50001156  .00121983  00000+0  44920-2 0  9991
2 58089  42.9998 107.0645 0000773 293.5263  63.8258 15.26669515  5668
STARLINK-30590          
1 58090U 23160R   26063.46630102  .00000348  00000+0  40842-4 0  9999
2 58090  43.0024 108.5096 0001191 272.8896  87.1810 15.02540256132135
STARLINK-30608          
1 58091U 23160S   26063.50001156  .00069921  00000+0  25924-2 0  9990
2 58091  42.9993 106.9369 0001027 269.7144 142.7138 15.26730858  5565
STARLINK-30615          
1 58092U 23160T   26063.50001156  .01974537  00000+0  74730-1 0  9998
2 58092  43.0006 107.3351 0001447 285.4624 317.9449 15.22810900  5769
STARLINK-30578          
1 58093U 23160U   26063.50001156  .00059192  00000+0  21458-2 0  9999
2 58093  42.9997 107.0492 0000784 292.0841  69.7723 15.27542267  5678
STARLINK-30574          
1 58094U 23160V   26063.50001156  .00144303  00000+0  53079-2 0  9993
2 58094  42.9996 106.9689 0000994 265.9902 130.8796 15.26595837  5663
STARLINK-30570          
1 58095U 23160W   26063.50001156  .01608013  00000+0  60885-1 0  9990
2 58095  42.9994 106.9807 0001173 299.8963  92.0868 15.22943053  5760
STARLINK-30581          
1 58096U 23160X   26063.50001156 -.00002528  00000+0 -82432-4 0  9996
2 58096  43.0045 107.2812 0000899 281.4145 341.4716 15.27554685  5715
STARLINK-30594          
1 58097U 23161A   26063.34409482  .00002063  00000+0  81761-4 0  9990
2 58097  53.1606 190.3320 0001153  86.2739 273.8393 15.30197279133607
